0 ALOS 2
1 39766U 14029A   26161.57878470  .00001861  00000-0  25606-3 0  9997
2 39766  97.9209 258.8375 0001670  90.9504 269.1899 14.79471427650605
0 KAZEOSAT 2
1 40010U 14033A   26161.62871399  .00000172  00000-0  25807-4 0  9993
2 40010  97.5416   1.5873 0008506 351.8156   8.2920 14.85460365647988
0 HODOYOSHI 4
1 40011U 14033B   26161.57900178  .00000467  00000-0  56224-4 0  9990
2 40011  97.5457 346.7208 0023028 331.0581  28.9358 14.88110373647829
0 DEIMOS 2
1 40013U 14033D   26161.61825941  .00001594  00000-0  15580-3 0  9992
2 40013  97.5845  36.3377 0002006  57.3416 302.7998 14.93712071636740
0 HODOYOSHI 3
1 40015U 14033F   26161.17916270  .00000959  00000-0  11647-3 0  9995
2 40015  97.6411 324.5022 0033320  20.2759 339.9771 14.85374333646583
0 SPOT 7
1 40053U 14034A   26161.60661922  .00000499  00000-0  11116-3 0  9997
2 40053  98.0630 224.2680 0001194  87.8130 272.3207 14.60953221636175
0 SKYSAT 2
1 40072U 14037D   26161.46796927  .00001152  00000-0  13219-3 0  9992
2 40072  98.3834 120.0501 0004423 309.9925  50.0901 14.88010442644965
0 WORLDVIEW 3
1 40115U 14048A   26161.63145104  .00000701  00000-0  88416-4 0  9997
2 40115  97.8566 236.5547 0001494  35.9617 324.1698 14.85011096640935
0 GAOFEN 2
1 40118U 14049A   26161.62227104  .00001053  00000-0  14315-3 0  9998
2 40118  98.0111 225.8360 0005871 252.9296 107.1273 14.80894215638266
0 YAOGAN 21
1 40143U 14053A   26161.60669972  .00008673  00000-0  33662-3 0  9993
2 40143  97.1480 202.1257 0009793 111.6037 248.6247 15.26278502653958
0 YAOGAN 22
1 40275U 14063A   26161.64529710 -.00000040  00000-0  17410-4 0  9994
2 40275 100.7716 312.8100 0006187 200.1172 159.9696 13.15531011558950
0 ASNARO
1 40298U 14070A   26161.57347728  .00009681  00000-0  46092-3 0  9992
2 40298  97.3449 237.8678 0004868 186.3124 173.8050 15.19339181643001
0 YAOGAN 24
1 40310U 14072A   26161.64285677  .00000471  00000-0  75640-4 0  9991
2 40310  98.1477 298.9262 0012619 286.8941  73.0885 14.76214545622753
0 CBERS-4
1 40336U 14079A   26161.62462910  .00000344  00000-0  13442-3 0  9991
2 40336  98.3534 218.6621 0001997  69.6838 290.4562 14.35508325603016
0 YAOGAN 26
1 40362U 14088A   26161.60143817  .00006143  00000-0  12305-3 0  9990
2 40362  97.0644 161.9657 0006513  81.5725 278.6264 15.47070249636688
0 SMAP
1 40376U 15003A   26161.58412799  .00000373  00000-0  81225-4 0  9995
2 40376  98.1276 168.7722 0001280  93.7026 266.4322 14.63360771606652
0 KOMPSAT 3A
1 40536U 15014A   26161.60877477  .00020567  00000-0  30180-3 0  9996
2 40536  97.6884 152.4912 0055972 198.3198 161.6040 15.53691591620790
0 SENTINEL 2A
1 40697U 15028A   26161.64124998  .00000212  00000-0  97594-4 0  9994
2 40697  98.5681 236.5859 0001079  87.6325 272.4982 14.30822510572791
0 GAOFEN 8
1 40701U 15030A   26161.61456574  .00024316  00000-0  50374-3 0  9993
2 40701  97.6911 354.5924 0008210 210.5056 149.5716 15.45720614610431
0 CARBONITE 1
1 40718U 15032D   26161.64024946  .00001225  00000-0  15466-3 0  9997
2 40718  97.6509 339.9814 0013612 321.2933  38.7305 14.83565763588376
0 YAOGAN 27
1 40878U 15040A   26161.64281128 -.00000048  00000-0 -14917-4 0  9995
2 40878 100.1151 148.3094 0007533 226.8552 133.1932 13.16068508516805
0 GAOFEN 9
1 40894U 15047A   26161.65215875  .00000827  00000-0  10763-3 0  9994
2 40894  97.6278 197.6437 0027910 158.5628 201.6762 14.82871178579223
0 YAOGAN 28
1 41026U 15064A   26161.64034640  .00006503  00000-0  24527-3 0  9999
2 41026  97.3061 300.0365 0010039 206.8062 153.2660 15.27336781589687
0 YAOGAN 29
1 41038U 15069A   26161.63339795  .00000577  00000-0  77579-4 0  9996
2 41038  98.0033 190.2560 0002831  65.2533 294.8975 14.83079961569655
0 KENT RIDGE 1
1 41167U 15077B   26161.09089615  .00003848  00000-0  12692-3 0  9999
2 41167  14.9807 318.7632 0008238 138.3408 221.7543 15.23089070580011
0 JASON 3
1 41240U 16002A   26161.55603322 -.00000029  00000-0  13136-3 0  9991
2 41240  66.0395 139.7763 0008577 273.0658  86.9380 12.87627916486399
0 SENTINEL 3A
1 41335U 16011A   26161.62435609  .00000075  00000-0  48839-4 0  9994
2 41335  98.6249 229.1020 0001370 103.7435 256.3898 14.26738138537128
0 ZY 3 2
1 41556U 16033A   26161.61281823  .00004639  00000-0  20944-3 0  9995
2 41556  97.3837 237.5127 0011487 316.0479  43.9843 15.21417400556987
0 CARTOSAT 2C
1 41599U 16040A   26161.60588898  .00004776  00000-0  22945-3 0  9996
2 41599  97.4490 221.6745 0010106 151.3641 208.8151 15.19267574552711
