OBJECT_NAME,OBJECT_ID,EPOCH,MEAN_MOTION,ECCENTRICITY,INCLINATION,RA_OF_ASC_NODE,ARG_OF_PERICENTER,MEAN_ANOMALY,EPHEMERIS_TYPE,CLASSIFICATION_TYPE,NORAD_CAT_ID,ELEMENT_SET_NO,REV_AT_EPOCH,BSTAR,MEAN_MOTION_DOT,MEAN_MOTION_DDOT
ALOS-2,2014-029A,2026-06-10T13:53:26.998080,14.79471427,.000167,97.9209,258.8375,90.9504,269.1899,0,U,39766,999,65060,.25605729E-3,.1861E-4,0
KAZEOSAT 2,2014-033A,2026-06-10T15:05:20.888736,14.85460365,.00085059,97.5416,1.5873,351.8156,8.2920,0,U,40010,999,64798,.25806799E-4,.172E-5,0
HODOYOSHI-4,2014-033B,2026-06-10T13:53:45.753792,14.88110373,.00230275,97.5457,346.7208,331.0581,28.9358,0,U,40011,999,64782,.56224427E-4,.467E-5,0
DEIMOS-2,2014-033D,2026-06-10T14:50:17.613024,14.93712071,.00020057,97.5845,36.3377,57.3416,302.7998,0,U,40013,999,63674,.15580031E-3,.1594E-4,0
HODOYOSHI-3,2014-033F,2026-06-10T04:17:59.657280,14.85374333,.003332,97.6411,324.5022,20.2759,339.9771,0,U,40015,999,64658,.11647E-3,.959E-5,0
SPOT 7,2014-034A,2026-06-10T14:33:31.900608,14.60953221,.00011937,98.0630,224.2680,87.8130,272.3207,0,U,40053,999,63617,.11116405E-3,.499E-5,0
SKYSAT-B,2014-037D,2026-06-10T11:13:52.544928,14.88010442,.00044225,98.3834,120.0501,309.9925,50.0901,0,U,40072,999,64496,.13219065E-3,.1152E-4,0
WORLDVIEW-3 (WV-3),2014-048A,2026-06-10T15:09:17.369856,14.85011096,.00014942,97.8566,236.5547,35.9617,324.1698,0,U,40115,999,64093,.88416129E-4,.701E-5,0
GAOFEN-2,2014-049A,2026-06-10T14:56:04.217856,14.80894215,.00058712,98.0111,225.8360,252.9296,107.1273,0,U,40118,999,63826,.14315254E-3,.1053E-4,0
YAOGAN-21,2014-053A,2026-06-10T14:33:38.855808,15.26278502,.00097932,97.1480,202.1257,111.6037,248.6247,0,U,40143,999,65395,.33661603E-3,.8673E-4,0
YAOGAN-22,2014-063A,2026-06-10T15:29:13.669440,13.15531011,.00061874,100.7716,312.8100,200.1172,159.9696,0,U,40275,999,55895,.17410447E-4,-.4E-6,0
ASNARO,2014-070A,2026-06-10T13:45:48.436992,15.19339181,.00048676,97.3449,237.8678,186.3124,173.8050,0,U,40298,999,64300,.46091627E-3,.9681E-4,0
YAOGAN-24,2014-072A,2026-06-10T15:25:42.824928,14.76214545,.00126187,98.1477,298.9262,286.8941,73.0885,0,U,40310,999,62275,.75640341E-4,.471E-5,0
CBERS 4,2014-079A,2026-06-10T14:59:27.954240,14.35508325,.00019974,98.3534,218.6621,69.6838,290.4562,0,U,40336,999,60301,.13442324E-3,.344E-5,0
YAOGAN-26,2014-088A,2026-06-10T14:26:04.257888,15.47070249,.00065129,97.0644,161.9657,81.5725,278.6264,0,U,40362,999,63668,.12305075E-3,.6143E-4,0
SMAP,2015-003A,2026-06-10T14:01:08.658336,14.63360771,.00012804,98.1276,168.7722,93.7026,266.4322,0,U,40376,999,60665,.81225142E-4,.373E-5,0
KOMPSAT-3A,2015-014A,2026-06-10T14:36:38.140128,15.53691591,.00559723,97.6884,152.4912,198.3198,161.6040,0,U,40536,999,62079,.30179686E-3,.20567E-3,0
SENTINEL-2A,2015-028A,2026-06-10T15:23:23.998272,14.30822510,.0001079,98.5681,236.5859,87.6325,272.4982,0,U,40697,999,57279,.97593982E-4,.212E-5,0
GAOFEN-8,2015-030A,2026-06-10T14:44:58.479936,15.45720614,.00082101,97.6911,354.5924,210.5056,149.5716,0,U,40701,999,61043,.50374353E-3,.24316E-3,0
CARBONITE 1 (CBNT-1),2015-032D,2026-06-10T15:21:57.553344,14.83565763,.00136123,97.6509,339.9814,321.2933,38.7305,0,U,40718,999,58837,.15466211E-3,.1225E-4,0
YAOGAN-27,2015-040A,2026-06-10T15:25:38.894592,13.16068508,.00075328,100.1151,148.3094,226.8552,133.1932,0,U,40878,999,51680,-.14917275E-4,-.48E-6,0
GAOFEN-9 01,2015-047A,2026-06-10T15:39:06.516000,14.82871178,.00279104,97.6278,197.6437,158.5628,201.6762,0,U,40894,999,57922,.10762504E-3,.827E-5,0
YAOGAN-28,2015-064A,2026-06-10T15:22:05.928960,15.27336781,.00100386,97.3061,300.0365,206.8062,153.2660,0,U,41026,999,58968,.24527315E-3,.6503E-4,0
YAOGAN-29,2015-069A,2026-06-10T15:12:05.582880,14.83079961,.00028307,98.0033,190.2560,65.2533,294.8975,0,U,41038,999,56965,.77578936E-4,.577E-5,0
KENT RIDGE 1,2015-077B,2026-06-10T02:10:53.427360,15.23089070,.00082377,14.9807,318.7632,138.3408,221.7543,0,U,41167,999,58001,.12691533E-3,.3848E-4,0
JASON-3,2016-002A,2026-06-10T13:20:41.270208,12.87627916,.00085767,66.0395,139.7763,273.0658,86.9380,0,U,41240,999,48639,.13136473E-3,-.29E-6,0
SENTINEL-3A,2016-011A,2026-06-10T14:59:04.366176,14.26738138,.00013701,98.6249,229.1020,103.7435,256.3898,0,U,41335,999,53712,.48839478E-4,.75E-6,0
ZIYUAN 3-02 (ZY 3-02),2016-033A,2026-06-10T14:42:27.495072,15.21417400,.00114867,97.3837,237.5127,316.0479,43.9843,0,U,41556,999,55698,.20944369E-3,.4639E-4,0
CARTOSAT-2C,2016-040A,2026-06-10T14:32:28.807872,15.19267574,.00101062,97.4490,221.6745,151.3641,208.8151,0,U,41599,999,55271,.22945094E-3,.4776E-4,0
